[{"OBJECT_NAME":"STARLINK-31960","OBJECT_ID":"2024-106K","EPOCH":"2026-03-09T02:07:36.088032","MEAN_MOTION":15.2757336,"ECCENTRICITY":8.434e-5,"INCLINATION":42.9992,"RA_OF_ASC_NODE":335.6842,"ARG_OF_PERICENTER":285.8018,"MEAN_ANOMALY":74.274,"EPHEMERIS_TYPE":0,"CLASSIFICATION_TYPE":"U","NORAD_CAT_ID":59931,"ELEMENT_SET_NO":999,"REV_AT_EPOCH":10043,"BSTAR":-0.00012579596,"MEAN_MOTION_DOT":-3.721e-5,"MEAN_MOTION_DDOT":0},{"OBJECT_NAME":"PELICAN-6","OBJECT_ID":"2025-276AP","EPOCH":"2026-03-09T16:58:12.890496","MEAN_MOTION":15.2637798,"ECCENTRICITY":0.0003569,"INCLINATION":97.4276,"RA_OF_ASC_NODE":144.2072,"ARG_OF_PERICENTER":157.8575,"MEAN_ANOMALY":202.2819,"EPHEMERIS_TYPE":0,"CLASSIFICATION_TYPE":"U","NORAD_CAT_ID":66703,"ELEMENT_SET_NO":999,"REV_AT_EPOCH":1533,"BSTAR":0.0029725783,"MEAN_MOTION_DOT":0.00077979,"MEAN_MOTION_DDOT":0}]
